[{"OBJECT_NAME":"STARLINK-4064","OBJECT_ID":"2022-053K","EPOCH":"2026-03-09T12:42:14.542272","MEAN_MOTION":15.08814941,"ECCENTRICITY":0.00013554,"INCLINATION":53.2176,"RA_OF_ASC_NODE":154.8427,"ARG_OF_PERICENTER":86.5614,"MEAN_ANOMALY":273.5533,"EPHEMERIS_TYPE":0,"CLASSIFICATION_TYPE":"U","NORAD_CAT_ID":52665,"ELEMENT_SET_NO":999,"REV_AT_EPOCH":21102,"BSTAR":-0.0002472712,"MEAN_MOTION_DOT":-4.218e-5,"MEAN_MOTION_DDOT":0},{"OBJECT_NAME":"STEP 2","OBJECT_ID":"1994-029A","EPOCH":"2026-03-09T19:35:47.124096","MEAN_MOTION":14.90069818,"ECCENTRICITY":0.0082455,"INCLINATION":81.9356,"RA_OF_ASC_NODE":275.268,"ARG_OF_PERICENTER":225.1907,"MEAN_ANOMALY":134.2589,"EPHEMERIS_TYPE":0,"CLASSIFICATION_TYPE":"U","NORAD_CAT_ID":23105,"ELEMENT_SET_NO":999,"REV_AT_EPOCH":70508,"BSTAR":0.00037800709,"MEAN_MOTION_DOT":3.917e-5,"MEAN_MOTION_DDOT":0}]
